{
  "type": "FeatureCollection",
  "features": [
    {
      "type": "Feature",
      "properties": {
        "norad_id": 31914,
        "name": "FENGYUN 1C DEB",
        "group": "fengyun-1c-debris",
        "lat": 4.545561705118319,
        "lon": 26.171085476868484,
        "alt_km": 716.1691056504815,
        "timestamp": "2025-12-08T17:43:05.216334+00:00",
        "meta_object_name": "FENGYUN 1C DEB",
        "meta_object_id": "1999-025CLR",
        "meta_epoch": "2025-12-08T02:05:16.152864",
        "meta_mean_motion": 14.55698914,
        "meta_eccentricity": 0.01832173,
        "meta_inclination": 99.028,
        "meta_ra_of_asc_node": 204.7427,
        "meta_arg_of_pericenter": 83.2262,
        "meta_mean_anomaly": 278.9744,
        "meta_ephemeris_type": 0,
        "meta_classification_type": "U",
        "meta_norad_cat_id": 31914,
        "meta_element_set_no": 999,
        "meta_rev_at_epoch": 68405,
        "meta_bstar": 0.00022541561,
        "meta_mean_motion_dot": 1.173e-05,
        "meta_mean_motion_ddot": 0,
        "tle_line1": "1 31914U 99025CLR 25342.08699251  .00001173  00000+0  22542-3 0  9998",
        "tle_line2": "2 31914  99.0280 204.7427 0183217  83.2262 278.9744 14.55698914684055"
      },
      "geometry": {
        "type": "Point",
        "coordinates": [
          26.171085476868484,
          4.545561705118319
        ]
      }
    },
    {
      "type": "Feature",
      "properties": {
        "norad_id": 31915,
        "name": "FENGYUN 1C DEB",
        "group": "fengyun-1c-debris",
        "lat": -50.84319993921945,
        "lon": 169.93363092017083,
        "alt_km": 797.6653457269613,
        "timestamp": "2025-12-08T17:43:05.216344+00:00",
        "meta_object_name": "FENGYUN 1C DEB",
        "meta_object_id": "1999-025CLS",
        "meta_epoch": "2025-12-06T00:11:01.887072",
        "meta_mean_motion": 14.16173926,
        "meta_eccentricity": 0.01012402,
        "meta_inclination": 98.633,
        "meta_ra_of_asc_node": 358.0384,
        "meta_arg_of_pericenter": 289.3213,
        "meta_mean_anomaly": 69.7036,
        "meta_ephemeris_type": 0,
        "meta_classification_type": "U",
        "meta_norad_cat_id": 31915,
        "meta_element_set_no": 999,
        "meta_rev_at_epoch": 64012,
        "meta_bstar": 0.0015400549,
        "meta_mean_motion_dot": 3.16e-05,
        "meta_mean_motion_ddot": 0,
        "tle_line1": "1 31915U 99025CLS 25340.00766073  .00003160  00000+0  15401-2 0  9999",
        "tle_line2": "2 31915  98.6330 358.0384 0101240 289.3213  69.7036 14.16173926640121"
      },
      "geometry": {
        "type": "Point",
        "coordinates": [
          169.93363092017083,
          -50.84319993921945
        ]
      }
    },
    {
      "type": "Feature",
      "properties": {
        "norad_id": 31916,
        "name": "FENGYUN 1C DEB",
        "group": "fengyun-1c-debris",
        "lat": -20.2076302236098,
        "lon": -115.84733844705524,
        "alt_km": 791.2697601858335,
        "timestamp": "2025-12-08T17:43:05.216354+00:00",
        "meta_object_name": "FENGYUN 1C DEB",
        "meta_object_id": "1999-025CLT",
        "meta_epoch": "2025-12-07T12:18:07.719840",
        "meta_mean_motion": 14.32440747,
        "meta_eccentricity": 0.01470771,
        "meta_inclination": 99.3305,
        "meta_ra_of_asc_node": 66.3036,
        "meta_arg_of_pericenter": 111.6445,
        "meta_mean_anomaly": 250.0475,
        "meta_ephemeris_type": 0,
        "meta_classification_type": "U",
        "meta_norad_cat_id": 31916,
        "meta_element_set_no": 999,
        "meta_rev_at_epoch": 64452,
        "meta_bstar": 0.0024866504,
        "meta_mean_motion_dot": 7.544e-05,
        "meta_mean_motion_ddot": 0,
        "tle_line1": "1 31916U 99025CLT 25341.51258935  .00007544  00000+0  24867-2 0  9996",
        "tle_line2": "2 31916  99.3305  66.3036 0147077 111.6445 250.0475 14.32440747644523"
      },
      "geometry": {
        "type": "Point",
        "coordinates": [
          -115.84733844705524,
          -20.2076302236098
        ]
      }
    },
    {
      "type": "Feature",
      "properties": {
        "norad_id": 31917,
        "name": "FENGYUN 1C DEB",
        "group": "fengyun-1c-debris",
        "lat": 62.75469987454097,
        "lon": -40.96962806156153,
        "alt_km": 823.0646050353798,
        "timestamp": "2025-12-08T17:43:05.216365+00:00",
        "meta_object_name": "FENGYUN 1C DEB",
        "meta_object_id": "1999-025CLU",
        "meta_epoch": "2025-12-08T05:48:46.536192",
        "meta_mean_motion": 14.37587467,
        "meta_eccentricity": 0.01893942,
        "meta_inclination": 98.3603,
        "meta_ra_of_asc_node": 335.1413,
        "meta_arg_of_pericenter": 306.9375,
        "meta_mean_anomaly": 69.4379,
        "meta_ephemeris_type": 0,
        "meta_classification_type": "U",
        "meta_norad_cat_id": 31917,
        "meta_element_set_no": 999,
        "meta_rev_at_epoch": 96357,
        "meta_bstar": 0.0010720453,
        "meta_mean_motion_dot": 3.907e-05,
        "meta_mean_motion_ddot": 0,
        "tle_line1": "1 31917U 99025CLU 25342.24220528  .00003907  00000+0  10720-2 0  9997",
        "tle_line2": "2 31917  98.3603 335.1413 0189394 306.9375  69.4379 14.37587467963579"
      },
      "geometry": {
        "type": "Point",
        "coordinates": [
          -40.96962806156153,
          62.75469987454097
        ]
      }
    },
    {
      "type": "Feature",
      "properties": {
        "norad_id": 31919,
        "name": "FENGYUN 1C DEB",
        "group": "fengyun-1c-debris",
        "lat": 46.610574119276166,
        "lon": -45.377207289546924,
        "alt_km": 729.6943104532702,
        "timestamp": "2025-12-08T17:43:05.216376+00:00",
        "meta_object_name": "FENGYUN 1C DEB",
        "meta_object_id": "1999-025CLW",
        "meta_epoch": "2025-12-07T03:43:14.673216",
        "meta_mean_motion": 14.45718281,
        "meta_eccentricity": 0.01020338,
        "meta_inclination": 99.1017,
        "meta_ra_of_asc_node": 123.1617,
        "meta_arg_of_pericenter": 223.2307,
        "meta_mean_anomaly": 315.1145,
        "meta_ephemeris_type": 0,
        "meta_classification_type": "U",
        "meta_norad_cat_id": 31919,
        "meta_element_set_no": 999,
        "meta_rev_at_epoch": 97000,
        "meta_bstar": 0.00092717578,
        "meta_mean_motion_dot": 3.448e-05,
        "meta_mean_motion_ddot": 0,
        "tle_line1": "1 31919U 99025CLW 25341.15503094  .00003448  00000+0  92718-3 0  9998",
        "tle_line2": "2 31919  99.1017 123.1617 0102033 223.2307 315.1145 14.45718281970008"
      },
      "geometry": {
        "type": "Point",
        "coordinates": [
          -45.377207289546924,
          46.610574119276166
        ]
      }
    },
    {
      "type": "Feature",
      "properties": {
        "norad_id": 31921,
        "name": "FENGYUN 1C DEB",
        "group": "fengyun-1c-debris",
        "lat": 71.28169689977368,
        "lon": 84.24676621461714,
        "alt_km": 1120.6370715055127,
        "timestamp": "2025-12-08T17:43:05.216386+00:00",
        "meta_object_name": "FENGYUN 1C DEB",
        "meta_object_id": "1999-025CLY",
        "meta_epoch": "2025-11-28T10:59:40.701408",
        "meta_mean_motion": 13.75221873,
        "meta_eccentricity": 0.02030283,
        "meta_inclination": 99.3395,
        "meta_ra_of_asc_node": 225.1205,
        "meta_arg_of_pericenter": 302.7278,
        "meta_mean_anomaly": 55.4443,
        "meta_ephemeris_type": 0,
        "meta_classification_type": "U",
        "meta_norad_cat_id": 31921,
        "meta_element_set_no": 999,
        "meta_rev_at_epoch": 92110,
        "meta_bstar": 0.0013372517,
        "meta_mean_motion_dot": 1.443e-05,
        "meta_mean_motion_ddot": 0,
        "tle_line1": "1 31921U 99025CLY 25332.45810997  .00001443  00000+0  13373-2 0  9999",
        "tle_line2": "2 31921  99.3395 225.1205 0203028 302.7278  55.4443 13.75221873921104"
      },
      "geometry": {
        "type": "Point",
        "coordinates": [
          84.24676621461714,
          71.28169689977368
        ]
      }
    },
    {
      "type": "Feature",
      "properties": {
        "norad_id": 31922,
        "name": "FENGYUN 1C DEB",
        "group": "fengyun-1c-debris",
        "lat": 1.0504152474076052,
        "lon": 154.56110824669852,
        "alt_km": 1035.242540969225,
        "timestamp": "2025-12-08T17:43:05.216397+00:00",
        "meta_object_name": "FENGYUN 1C DEB",
        "meta_object_id": "1999-025CLZ",
        "meta_epoch": "2025-12-07T22:05:45.138912",
        "meta_mean_motion": 13.86574816,
        "meta_eccentricity": 0.01615411,
        "meta_inclination": 98.8044,
        "meta_ra_of_asc_node": 333.6286,
        "meta_arg_of_pericenter": 39.4842,
        "meta_mean_anomaly": 19.2361,
        "meta_ephemeris_type": 0,
        "meta_classification_type": "U",
        "meta_norad_cat_id": 31922,
        "meta_element_set_no": 999,
        "meta_rev_at_epoch": 92950,
        "meta_bstar": 0.0021118446,
        "meta_mean_motion_dot": 2.679e-05,
        "meta_mean_motion_ddot": 0,
        "tle_line1": "1 31922U 99025CLZ 25341.92066133  .00002679  00000+0  21118-2 0  9995",
        "tle_line2": "2 31922  98.8044 333.6286 0161541  39.4842  19.2361 13.86574816929507"
      },
      "geometry": {
        "type": "Point",
        "coordinates": [
          154.56110824669852,
          1.0504152474076052
        ]
      }
    }
  ]
}